start=new Date('2022-06-27T00:00:00.000Z').valueOf();
sats=[{"CENTER_NAME":"EARTH","EPHEMERIS_TYPE":"0","OBJECT_ID":"2021-009AW","MEAN_MOTION_DDOT":"0.0000000000000","COUNTRY_CODE":"US","TLE_LINE2":"2 47592  53.0554 350.6850 0001468  73.3779 286.7371 15.06409850 76749","FILE":"3503441","ELEMENT_SET_NO":"999","REF_FRAME":"TEME","LAUNCH_DATE":"2021-02-04","OBJECT_TYPE":"PAYLOAD","RCS_SIZE":"LARGE","PERIOD":"95.592","MEAN_ANOMALY":"286.7371","RA_OF_ASC_NODE":"350.6850","REV_AT_EPOCH":"7674","SEMIMAJOR_AXIS":"6925.318","BSTAR":"0.00022270000000","INCLINATION":"53.0554","MEAN_MOTION":"15.06409850","EPOCH":"2022-06-26T18:11:44.687040","OBJECT_NAME":"STARLINK-1997","TIME_SYSTEM":"UTC","APOAPSIS":"548.200","ECCENTRICITY":"0.00014680","NORAD_CAT_ID":"47592","DECAY_DATE":null,"TLE_LINE1":"1 47592U 21009AW  22177.75815610  .00003038  00000-0  22270-3 0  9991","SITE":"AFETR","ARG_OF_PERICENTER":"73.3779","PERIAPSIS":"546.167","MEAN_ELEMENT_THEORY":"SGP4","CLASSIFICATION_TYPE":"U","MEAN_MOTION_DOT":"0.00003038","GP_ID":"206925887"},{"MEAN_MOTION_DOT":"0.00001336","GP_ID":"206926115","CLASSIFICATION_TYPE":"U","MEAN_ELEMENT_THEORY":"SGP4","TLE_LINE1":"1 47593U 21009AX  22177.79502598  .00001336  00000-0  10857-3 0  9991","SITE":"AFETR","PERIAPSIS":"546.188","ARG_OF_PERICENTER":"59.7685","DECAY_DATE":null,"NORAD_CAT_ID":"47593","TIME_SYSTEM":"UTC","APOAPSIS":"548.264","ECCENTRICITY":"0.00014990","MEAN_MOTION":"15.06395838","OBJECT_NAME":"STARLINK-1998","EPOCH":"2022-06-26T19:04:50.244672","INCLINATION":"53.0550","BSTAR":"0.00010857000000","RA_OF_ASC_NODE":"350.5013","REV_AT_EPOCH":"7675","SEMIMAJOR_AXIS":"6925.361","MEAN_ANOMALY":"300.3452","PERIOD":"95.592","OBJECT_TYPE":"PAYLOAD","RCS_SIZE":"LARGE","LAUNCH_DATE":"2021-02-04","REF_FRAME":"TEME","TLE_LINE2":"2 47593  53.0550 350.5013 0001499  59.7685 300.3452 15.06395838 76758","COUNTRY_CODE":"US","FILE":"3503441","ELEMENT_SET_NO":"999","MEAN_MOTION_DDOT":"0.0000000000000","OBJECT_ID":"2021-009AX","EPHEMERIS_TYPE":"0","CENTER_NAME":"EARTH"},{"RA_OF_ASC_NODE":"350.6701","SEMIMAJOR_AXIS":"6925.306","REV_AT_EPOCH":"7674","BSTAR":"-0.00005258800000","INCLINATION":"53.0545","OBJECT_TYPE":"PAYLOAD","RCS_SIZE":"LARGE","PERIOD":"95.591","MEAN_ANOMALY":"290.6322","TLE_LINE2":"2 47594  53.0545 350.6701 0001560  69.4834 290.6322 15.06413928 76748","COUNTRY_CODE":"US","FILE":"3503441","ELEMENT_SET_NO":"999","REF_FRAME":"TEME","LAUNCH_DATE":"2021-02-04","CENTER_NAME":"EARTH","EPHEMERIS_TYPE":"0","OBJECT_ID":"2021-009AY","MEAN_MOTION_DDOT":"0.0000000000000","MEAN_MOTION_DOT":"-0.00001065","GP_ID":"206925385","NORAD_CAT_ID":"47594","DECAY_DATE":null,"TLE_LINE1":"1 47594U 21009AY  22177.76183578 -.00001065  00000-0 -52588-4 0  9991","ARG_OF_PERICENTER":"69.4834","SITE":"AFETR","PERIAPSIS":"546.091","CLASSIFICATION_TYPE":"U","MEAN_ELEMENT_THEORY":"SGP4","TIME_SYSTEM":"UTC","APOAPSIS":"548.251","ECCENTRICITY":"0.00015600","MEAN_MOTION":"15.06413928","EPOCH":"2022-06-26T18:17:02.611392","OBJECT_NAME":"STARLINK-1999"},{"GP_ID":"206925137","MEAN_MOTION_DOT":"0.00001606","MEAN_ELEMENT_THEORY":"SGP4","CLASSIFICATION_TYPE":"U","DECAY_DATE":null,"NORAD_CAT_ID":"47595","SITE":"AFETR","ARG_OF_PERICENTER":"79.0260","PERIAPSIS":"546.152","TLE_LINE1":"1 47595U 21009AZ  22177.74710200  .00001606  00000-0  12668-3 0  9991","ECCENTRICITY":"0.00015380","TIME_SYSTEM":"UTC","APOAPSIS":"548.282","OBJECT_NAME":"STARLINK-2000","EPOCH":"2022-06-26T17:55:49.612800","MEAN_MOTION":"15.06398828","BSTAR":"0.00012668000000","INCLINATION":"53.0546","REV_AT_EPOCH":"7674","SEMIMAJOR_AXIS":"6925.352","RA_OF_ASC_NODE":"350.7248","PERIOD":"95.592","MEAN_ANOMALY":"281.0902","RCS_SIZE":"LARGE","OBJECT_TYPE":"PAYLOAD","REF_FRAME":"TEME","LAUNCH_DATE":"2021-02-04","ELEMENT_SET_NO":"999","TLE_LINE2":"2 47595  53.0546 350.7248 0001538  79.0260 281.0902 15.06398828 76741","FILE":"3503441","COUNTRY_CODE":"US","MEAN_MOTION_DDOT":"0.0000000000000","CENTER_NAME":"EARTH","EPHEMERIS_TYPE":"0","OBJECT_ID":"2021-009AZ"},{"ECCENTRICITY":"0.00013830","APOAPSIS":"548.172","TIME_SYSTEM":"UTC","OBJECT_NAME":"STARLINK-2001","EPOCH":"2022-06-26T16:25:35.776704","MEAN_MOTION":"15.06399856","GP_ID":"206926387","MEAN_MOTION_DOT":"0.00001379","PERIAPSIS":"546.256","SITE":"AFETR","ARG_OF_PERICENTER":"66.9125","TLE_LINE1":"1 47596U 21009BA  22177.68444186  .00001379  00000-0  11147-3 0  9990","DECAY_DATE":null,"NORAD_CAT_ID":"47596","CLASSIFICATION_TYPE":"U","MEAN_ELEMENT_THEORY":"SGP4","ELEMENT_SET_NO":"999","COUNTRY_CODE":"US","TLE_LINE2":"2 47596  53.0554 351.0075 0001383  66.9125 293.2010 15.06399856 76732","FILE":"3503441","LAUNCH_DATE":"2021-02-04","REF_FRAME":"TEME","OBJECT_ID":"2021-009BA","CENTER_NAME":"EARTH","EPHEMERIS_TYPE":"0","MEAN_MOTION_DDOT":"0.0000000000000","SEMIMAJOR_AXIS":"6925.349","REV_AT_EPOCH":"7673","RA_OF_ASC_NODE":"351.0075","INCLINATION":"53.0554","BSTAR":"0.00011147000000","RCS_SIZE":"LARGE","OBJECT_TYPE":"PAYLOAD","MEAN_ANOMALY":"293.2010","PERIOD":"95.592"},{"MEAN_MOTION_DOT":"0.00002042","GP_ID":"206926615","CLASSIFICATION_TYPE":"U","MEAN_ELEMENT_THEORY":"SGP4","TLE_LINE1":"1 47597U 21009BB  22177.74341468  .00002042  00000-0  15596-3 0  9997","PERIAPSIS":"545.971","SITE":"AFETR","ARG_OF_PERICENTER":"67.9805","NORAD_CAT_ID":"47597","DECAY_DATE":null,"APOAPSIS":"548.433","TIME_SYSTEM":"UTC","ECCENTRICITY":"0.00017770","MEAN_MOTION":"15.06403785","OBJECT_NAME":"STARLINK-2002","EPOCH":"2022-06-26T17:50:31.028352","INCLINATION":"53.0555","BSTAR":"0.00015596000000","RA_OF_ASC_NODE":"350.7444","REV_AT_EPOCH":"7674","SEMIMAJOR_AXIS":"6925.337","MEAN_ANOMALY":"292.1372","PERIOD":"95.592","OBJECT_TYPE":"PAYLOAD","RCS_SIZE":"LARGE","LAUNCH_DATE":"2021-02-04","REF_FRAME":"TEME","FILE":"3503441","TLE_LINE2":"2 47597  53.0555 350.7444 0001777  67.9805 292.1372 15.06403785 76740","COUNTRY_CODE":"US","ELEMENT_SET_NO":"999","MEAN_MOTION_DDOT":"0.0000000000000","OBJECT_ID":"2021-009BB","EPHEMERIS_TYPE":"0","CENTER_NAME":"EARTH"},{"ELEMENT_SET_NO":"999","COUNTRY_CODE":"US","TLE_LINE2":"2 47598  53.0556 320.4058 0001585  73.2585 286.8578 15.06399504 77796","FILE":"3503289","LAUNCH_DATE":"2021-02-04","REF_FRAME":"TEME","OBJECT_ID":"2021-009BC","EPHEMERIS_TYPE":"0","CENTER_NAME":"EARTH","MEAN_MOTION_DDOT":"0.0000000000000","REV_AT_EPOCH":"7779","SEMIMAJOR_AXIS":"6925.350","RA_OF_ASC_NODE":"320.4058","INCLINATION":"53.0556","BSTAR":"0.00012334000000","RCS_SIZE":"LARGE","OBJECT_TYPE":"PAYLOAD","MEAN_ANOMALY":"286.8578","PERIOD":"95.592","ECCENTRICITY":"0.00015850","APOAPSIS":"548.313","TIME_SYSTEM":"UTC","OBJECT_NAME":"STARLINK-2003","EPOCH":"2022-06-26T19:40:39.144864","MEAN_MOTION":"15.06399504","GP_ID":"206900405","MEAN_MOTION_DOT":"0.00001556","ARG_OF_PERICENTER":"73.2585","SITE":"AFETR","PERIAPSIS":"546.117","TLE_LINE1":"1 47598U 21009BC  22177.81989751  .00001556  00000-0  12334-3 0  9995","DECAY_DATE":null,"NORAD_CAT_ID":"47598","CLASSIFICATION_TYPE":"U","MEAN_ELEMENT_THEORY":"SGP4"},{"MEAN_MOTION_DOT":"0.00003730","GP_ID":"206925636","CLASSIFICATION_TYPE":"U","MEAN_ELEMENT_THEORY":"SGP4","NORAD_CAT_ID":"47599","DECAY_DATE":null,"TLE_LINE1":"1 47599U 21009BD  22177.87610876  .00003730  00000-0  26912-3 0  9994","PERIAPSIS":"546.174","SITE":"AFETR","ARG_OF_PERICENTER":"62.4164","TIME_SYSTEM":"UTC","APOAPSIS":"548.207","ECCENTRICITY":"0.00014680","MEAN_MOTION":"15.06407437","OBJECT_NAME":"STARLINK-2004","EPOCH":"2022-06-26T21:01:35.796864","BSTAR":"0.00026912000000","INCLINATION":"53.0554","RA_OF_ASC_NODE":"310.1546","SEMIMAJOR_AXIS":"6925.326","REV_AT_EPOCH":"7732","PERIOD":"95.592","MEAN_ANOMALY":"297.6974","OBJECT_TYPE":"PAYLOAD","RCS_SIZE":"LARGE","REF_FRAME":"TEME","LAUNCH_DATE":"2021-02-04","COUNTRY_CODE":"US","TLE_LINE2":"2 47599  53.0554 310.1546 0001468  62.4164 297.6974 15.06407437 77320","FILE":"3503441","ELEMENT_SET_NO":"999","MEAN_MOTION_DDOT":"0.0000000000000","EPHEMERIS_TYPE":"0","CENTER_NAME":"EARTH","OBJECT_ID":"2021-009BD"},{"MEAN_ANOMALY":"281.7516","PERIOD":"95.591","OBJECT_TYPE":"PAYLOAD","RCS_SIZE":"LARGE","INCLINATION":"53.0551","BSTAR":"0.00012510000000","RA_OF_ASC_NODE":"311.1941","REV_AT_EPOCH":"7729","SEMIMAJOR_AXIS":"6925.315","MEAN_MOTION_DDOT":"0.0000000000000","OBJECT_ID":"2021-009BE","CENTER_NAME":"EARTH","EPHEMERIS_TYPE":"0","LAUNCH_DATE":"2021-02-04","REF_FRAME":"TEME","FILE":"3503441","TLE_LINE2":"2 47600  53.0551 311.1941 0001357  78.3626 281.7516 15.06410921 77290","COUNTRY_CODE":"US","ELEMENT_SET_NO":"999","CLASSIFICATION_TYPE":"U","MEAN_ELEMENT_THEORY":"SGP4","TLE_LINE1":"1 47600U 21009BE  22177.63651513  .00001583  00000-0  12510-3 0  9997","SITE":"AFETR","ARG_OF_PERICENTER":"78.3626","PERIAPSIS":"546.240","NORAD_CAT_ID":"47600","DECAY_DATE":null,"MEAN_MOTION_DOT":"0.00001583","GP_ID":"206925888","MEAN_MOTION":"15.06410921","OBJECT_NAME":"STARLINK-2005","EPOCH":"2022-06-26T15:16:34.907232","TIME_SYSTEM":"UTC","APOAPSIS":"548.120","ECCENTRICITY":"0.00013570"},{"GP_ID":"206926116","MEAN_MOTION_DOT":"0.00000245","MEAN_ELEMENT_THEORY":"SGP4","CLASSIFICATION_TYPE":"U","DECAY_DATE":null,"NORAD_CAT_ID":"47601","SITE":"AFETR","PERIAPSIS":"546.185","ARG_OF_PERICENTER":"68.4582","TLE_LINE1":"1 47601U 21009BF  22177.87979597  .00000245  00000-0  35371-4 0  9994","ECCENTRICITY":"0.00014950","APOAPSIS":"548.256","TIME_SYSTEM":"UTC","OBJECT_NAME":"STARLINK-2006","EPOCH":"2022-06-26T21:06:54.371808","MEAN_MOTION":"15.06397687","BSTAR":"0.00003537100000","INCLINATION":"53.0560","SEMIMAJOR_AXIS":"6925.356","REV_AT_EPOCH":"7732","RA_OF_ASC_NODE":"310.1424","PERIOD":"95.592","MEAN_ANOMALY":"291.6567","RCS_SIZE":"LARGE","OBJECT_TYPE":"PAYLOAD","REF_FRAME":"TEME","LAUNCH_DATE":"2021-02-04","ELEMENT_SET_NO":"999","TLE_LINE2":"2 47601  53.0560 310.1424 0001495  68.4582 291.6567 15.06397687 77323","FILE":"3503441","COUNTRY_CODE":"US","MEAN_MOTION_DDOT":"0.0000000000000","EPHEMERIS_TYPE":"0","CENTER_NAME":"EARTH","OBJECT_ID":"2021-009BF"}];
